ONEWEB-0094             
1 45450U 20020AC  24196.56834464  .00000018  00000+0  14329-4 0  9995
2 45450  87.9186 145.7337 0002233  80.3076 279.8308 13.17649283213785
ONEWEB-0087             
1 45451U 20020AD  24196.41430755  .00000170  00000+0  44251-3 0  9990
2 45451  87.8973 160.9041 0002369  82.4105 277.7292 13.11418289210472
ONEWEB-0082             
1 45452U 20020AE  24196.41105082  .00000075  00000+0  17517-3 0  9992
2 45452  87.8979 160.9091 0002040  81.2220 278.9139 13.11419131210565
ONEWEB-0050             
1 45453U 20020AF  24196.53321700  .00003493  00000+0  36063-3 0  9997
2 45453  88.0022  21.2124 0003338  33.8318 326.3123 14.89924685235699
ONEWEB-0034             
1 45454U 20020AG  24196.43310399  .00000599  00000+0  16553-2 0  9994
2 45454  87.8976 160.9241 0002118  81.9673 278.1695 13.11416825210483
ONEWEB-0060             
1 45455U 20020AH  24196.39931977 -.00000382  00000+0 -11133-2 0  9992
2 45455  87.8982 160.9470 0002111  89.6555 270.4815 13.11419688210436
ONEWEB-0086             
1 45456U 20020AJ  24196.45852304 -.00000257  00000+0 -76067-3 0  9995
2 45456  87.8975 160.9198 0002476  78.5461 281.5945 13.11414374210505
ONEWEB-0088             
1 45457U 20020AK  24196.43650187  .00000596  00000+0  16462-2 0  9995
2 45457  87.8972 160.8885 0002188  83.0721 277.0656 13.11416410210439
